{
    "links": {
        "self": "http://www.neowsapp.com/rest/v1/neo/3767000?api_key=iIulBulltgU6a56xZRHN4H3l9WmuAYTsLGpBGhQ2"
    },
    "id": "3767000",
    "neo_reference_id": "3767000",
    "name": "(2017 BN6)",
    "designation": "2017 BN6",
    "nasa_jpl_url": "http://ssd.jpl.nasa.gov/sbdb.cgi?sstr=3767000",
    "absolute_magnitude_h": 27.4,
    "estimated_diameter": {
        "kilometers": {
            "estimated_diameter_min": 0.0088014652,
            "estimated_diameter_max": 0.0196806745
        },
        "meters": {
            "estimated_diameter_min": 8.801465209,
            "estimated_diameter_max": 19.6806745089
        },
        "miles": {
            "estimated_diameter_min": 0.0054689752,
            "estimated_diameter_max": 0.0122290004
        },
        "feet": {
            "estimated_diameter_min": 28.8761991163,
            "estimated_diameter_max": 64.5691441559
        }
    },
    "is_potentially_hazardous_asteroid": false,
    "close_approach_data": [
        {
            "close_approach_date": "2017-01-23",
            "close_approach_date_full": "2017-Jan-23 10:52",
            "epoch_date_close_approach": 1485168720000,
            "relative_velocity": {
                "kilometers_per_second": "14.8313053394",
                "kilometers_per_hour": "53392.6992219095",
                "miles_per_hour": "33176.146913747"
            },
            "miss_distance": {
                "astronomical": "0.006142833",
                "lunar": "2.389562037",
                "kilometers": "918954.73256571",
                "miles": "571011.992638398"
            },
            "orbiting_body": "Moon"
        },
        {
            "close_approach_date": "2017-01-23",
            "close_approach_date_full": "2017-Jan-23 14:09",
            "epoch_date_close_approach": 1485180540000,
            "relative_velocity": {
                "kilometers_per_second": "13.9760989935",
                "kilometers_per_hour": "50313.9563765928",
                "miles_per_hour": "31263.1358385557"
            },
            "miss_distance": {
                "astronomical": "0.0042570594",
                "lunar": "1.6559961066",
                "kilometers": "636847.018703478",
                "miles": "395718.3877168764"
            },
            "orbiting_body": "Earth"
        },
        {
            "close_approach_date": "2085-08-15",
            "close_approach_date_full": "2085-Aug-15 14:51",
            "epoch_date_close_approach": 3648725460000,
            "relative_velocity": {
                "kilometers_per_second": "14.7172892026",
                "kilometers_per_hour": "52982.2411294111",
                "miles_per_hour": "32921.1042173277"
            },
            "miss_distance": {
                "astronomical": "0.0940831386",
                "lunar": "36.5983409154",
                "kilometers": "14074637.137474782",
                "miles": "8745573.9795727116"
            },
            "orbiting_body": "Mars"
        },
        {
            "close_approach_date": "2111-01-16",
            "close_approach_date_full": "2111-Jan-16 06:20",
            "epoch_date_close_approach": 4450832400000,
            "relative_velocity": {
                "kilometers_per_second": "11.3427226953",
                "kilometers_per_hour": "40833.8017030289",
                "miles_per_hour": "25372.5363970848"
            },
            "miss_distance": {
                "astronomical": "0.0869424437",
                "lunar": "33.8206105993",
                "kilometers": "13006404.390114919",
                "miles": "8081804.9297431222"
            },
            "orbiting_body": "Earth"
        }
    ],
    "orbital_data": {
        "orbit_id": "4",
        "orbit_determination_date": "2017-04-06 08:20:50",
        "first_observation_date": "2017-01-26",
        "last_observation_date": "2017-01-31",
        "data_arc_in_days": 5,
        "observations_used": 29,
        "orbit_uncertainty": "8",
        "minimum_orbit_intersection": ".00335919",
        "jupiter_tisserand_invariant": "4.088",
        "epoch_osculation": "2457780.5",
        "eccentricity": ".5391613411527054",
        "semi_major_axis": "1.65862206677962",
        "inclination": ".3375089712310299",
        "ascending_node_longitude": "267.5214332216847",
        "orbital_period": "780.2245034082456",
        "perihelion_distance": ".7643571687892479",
        "perihelion_argument": "147.0210509850762",
        "aphelion_distance": "2.552886964769992",
        "perihelion_time": "2457732.018494553334",
        "mean_anomaly": "22.36964089766283",
        "mean_motion": ".4614056575093659",
        "equinox": "J2000",
        "orbit_class": {
            "orbit_class_type": "APO",
            "orbit_class_description": "Near-Earth asteroid orbits which cross the Earth’s orbit similar to that of 1862 Apollo",
            "orbit_class_range": "a (semi-major axis) > 1.0 AU; q (perihelion) < 1.017 AU"
        }
    },
    "is_sentry_object": false
}